BEIDOU-2 IGSO-1 (C06)   
1 36828U 10036A   24107.09773064 -.00000114  00000+0  00000+0 0  9992
2 36828  54.2443 170.1322 0040088 199.8970 333.3797  1.00245293 50264
BEIDOU-2 G4 (C04)       
1 37210U 10057A   24119.50314094 -.00000101  00000+0  00000+0 0  9990
2 37210   1.7265  68.0129 0003164 200.2338 289.9046  1.00272548 49464
BEIDOU-2 IGSO-2 (C07)   
1 37256U 10068A   24118.38660427 -.00000196  00000+0  00000+0 0  9995
2 37256  48.9756 281.4358 0033176 209.0795 332.4269  1.00266306 48967
BEIDOU-2 IGSO-3 (C08)   
1 37384U 11013A   24118.77369608 -.00000189  00000+0  00000+0 0  9990
2 37384  61.2829  47.5989 0025897 179.5869  16.3389  1.00271289 47835
BEIDOU-2 IGSO-4 (C09)   
1 37763U 11038A   24118.57535928  .00000007  00000+0  00000+0 0  9994
2 37763  54.5511 172.6239 0123847 228.4301 118.2503  1.00269764 46818
BEIDOU-2 IGSO-5 (C10)   
1 37948U 11073A   24118.42936198 -.00000140  00000+0  00000+0 0  9995
2 37948  49.1067 281.1186 0095438 219.1575 324.4742  1.00262871 45301
BEIDOU-2 G5 (C05)       
1 38091U 12008A   24119.42465528  .00000068  00000+0  00000+0 0  9997
2 38091   1.9551  70.4028 0008339 268.7036  89.3985  1.00267949 44660
BEIDOU-2 M3 (C11)       
1 38250U 12018A   24117.92206224 -.00000054  00000+0  00000+0 0  9990
2 38250  56.3714 331.0462 0020760 266.5198  93.2790  1.86231325 81748
BEIDOU-2 M4 (C12)       
1 38251U 12018B   24118.92638384 -.00000050  00000+0  00000+0 0  9994
2 38251  56.2787 330.2882 0011689 271.6203  88.2793  1.86232033 81765
BEIDOU-2 M6 (C14)       
1 38775U 12050B   24118.09882314  .00000025  00000+0  00000+0 0  9994
2 38775  55.8750  88.8695 0014801 332.2164  27.6760  1.86231109 78768
BEIDOU-2 G6 (C02)       
1 38953U 12059A   24118.93243855 -.00000164  00000+0  00000+0 0  9990
2 38953   2.4314  80.7964 0010974 310.2289 245.1345  1.00272433 42084
BEIDOU-3S IGSO-1S (C31) 
1 40549U 15019A   24118.45883024 -.00000154  00000+0  00000+0 0  9997
2 40549  50.6682 304.7856 0036535 191.4684 338.7884  1.00260305 33249
BEIDOU-3S M2S (C58)     
1 40748U 15037A   24119.12706470 -.00000050  00000+0  00000+0 0  9997
2 40748  55.5118 328.7335 0007832 259.1785 100.7641  1.86233163 59598
BEIDOU-3S M1S (C57)     
1 40749U 15037B   24118.86044802 -.00000050  00000+0  00000+0 0  9992
2 40749  55.5150 328.7295 0005172   0.5580 359.4739  1.86232978 59589
BEIDOU-3S IGSO-2S (C56) 
1 40938U 15053A   24116.88407382 -.00000144  00000+0  00000+0 0  9990
2 40938  50.4431 268.0124 0050407 188.2553 172.9697  1.00274658 31518
BEIDOU-2 IGSO-6 (C13)   
1 41434U 16021A   24118.76160630 -.00000163  00000+0  00000+0 0  9990
2 41434  59.1070  45.8598 0048717 224.7086 315.7454  1.00280582 29652
BEIDOU-2 G7 (C03)       
1 41586U 16037A   24118.86226955 -.00000342  00000+0  00000+0 0  9998
2 41586   1.7859  68.9695 0009000 324.6864 243.5521  1.00277742 28968
BEIDOU-3 M1 (C19)       
1 43001U 17069A   24117.32796145  .00000021  00000+0  00000+0 0  9994
2 43001  56.0247  88.9854 0012426 302.5825  57.2687  1.86231462 44046
BEIDOU-3 M2 (C20)       
1 43002U 17069B   24119.41290700  .00000033  00000+0  00000+0 0  9996
2 43002  56.0258  88.9516 0010177 322.2313  37.6715  1.86230974 44070
BEIDOU-3 M7 (C27)       
1 43107U 18003A   24119.16253077 -.00000052  00000+0  00000+0 0  9991
2 43107  54.9696 329.3452 0005169  65.4339 294.6512  1.86232434 42834
BEIDOU-3 M8 (C28)       
1 43108U 18003B   24118.56559605 -.00000053  00000+0  00000+0 0  9992
2 43108  54.9629 329.3514 0002457 274.8216  85.1823  1.86230939 42822
BEIDOU-3 M4 (C22)       
1 43207U 18018A   24118.46993394  .00000027  00000+0  00000+0 0  9994
2 43207  55.9844  89.0385 0007295 340.4548  19.4893  1.86231300 42203
BEIDOU-3 M3 (C21)       
1 43208U 18018B   24118.53649918  .00000028  00000+0  00000+0 0  9994
2 43208  55.9839  89.0405 0010160 312.1576  47.7284  1.86231297 42206
BEIDOU-3 M9 (C29)       
1 43245U 18029A   24118.22129301 -.00000052  00000+0  00000+0 0  9990
2 43245  54.8557 327.0905 0000822  38.4377 321.5977  1.86232658 41352
BEIDOU-3 M10 (C30)      
1 43246U 18029B   24118.15104447 -.00000052  00000+0  00000+0 0  9997
2 43246  54.8527 327.1204 0004640  17.6716 342.3743  1.86232864 41341
BEIDOU-2 IGSO-7 (C16)   
1 43539U 18057A   24118.80487795 -.00000080  00000+0  00000+0 0  9996
2 43539  55.1345 169.8084 0074205 232.8809 216.3040  1.00268385 21311
BEIDOU-3 M5 (C23)       
1 43581U 18062A   24118.37330445  .00000034  00000+0  00000+0 0  9998
2 43581  54.1374 208.8656 0003384 275.9809  84.0340  1.86228683 39094
BEIDOU-3 M6 (C24)       
1 43582U 18062B   24118.77634921  .00000032  00000+0  00000+0 0  9997
2 43582  54.1370 208.8413 0004422  21.1993 338.8728  1.86229424 39107
BEIDOU-3 M12 (C26)      
1 43602U 18067A   24118.71025932  .00000033  00000+0  00000+0 0  9996
2 43602  54.2270 207.5200 0006948  24.4516 335.6375  1.86231748 38588
BEIDOU-3 M11 (C25)      
1 43603U 18067B   24119.38112088  .00000029  00000+0  00000+0 0  9995
2 43603  54.2241 207.4624 0003721  13.2294 346.8362  1.86231577 38626
BEIDOU-3 M13 (C32)      
1 43622U 18072A   24118.26769433  .00000025  00000+0  00000+0 0  9996
2 43622  55.9551  88.5773 0008953 301.0834  58.8004  1.86231420 38116
BEIDOU-3 M14 (C33)      
1 43623U 18072B   24119.20705775  .00000031  00000+0  00000+0 0  9998
2 43623  55.9577  88.5390 0006711 321.3549  38.5705  1.86231400 38120
BEIDOU-3 M16 (C35)      
1 43647U 18078A   24118.83316818 -.00000050  00000+0  00000+0 0  9996
2 43647  54.7514 327.1717 0008008  21.0435 339.0183  1.86232280 37628
BEIDOU-3 M15 (C34)      
1 43648U 18078B   24118.96234771 -.00000050  00000+0  00000+0 0  9998
2 43648  54.7472 327.1703 0005115  32.7210 327.3393  1.86232203 37654
BEIDOU-3 G1 (C59)       
1 43683U 18085A   24118.86818708 -.00000266  00000+0  00000+0 0  9991
2 43683   2.0674 111.5626 0004344 344.3089 213.0546  1.00268658 20237
BEIDOU-3 M17 (C36)      
1 43706U 18093A   24118.57498385  .00000033  00000+0  00000+0 0  9990
2 43706  54.2203 208.7934 0008523 280.6449  79.3129  1.86228335 37001
BEIDOU-3 M18 (C37)      
1 43707U 18093B   24118.97767587  .00000031  00000+0  00000+0 0  9996
2 43707  54.2209 208.7713 0006726 311.4457  48.5505  1.86229749 37004
BEIDOU-3 IGSO-1 (C38)   
1 44204U 19023A   24118.76448100 -.00000219  00000+0  00000+0 0  9996
2 44204  57.5711  45.7531 0019304 213.8884 350.5991  1.00264405 18517
BEIDOU-2 G8 (C01)       
1 44231U 19027A   24119.52589196 -.00000237  00000+0  00000+0 0  9996
2 44231   1.8257  73.5477 0002255 166.2874 311.0179  1.00270609 18253
BEIDOU-3 IGSO-2 (C39)   
1 44337U 19035A   24119.02375802 -.00000082  00000+0  00000+0 0  9992
2 44337  55.1693 165.7082 0033035 208.1990 329.2384  1.00256734 17876
BEIDOU-3 M24 (C46)      
1 44542U 19061A   24117.97370417  .00000035  00000+0  00000+0 0  9995
2 44542  54.4479 209.0897 0007243 354.3421   5.7021  1.86231156 31245
BEIDOU-3 M23 (C45)      
1 44543U 19061B   24118.96437780  .00000031  00000+0  00000+0 0  9999
2 44543  54.4462 209.0255 0004342 338.1045 238.3414  1.86231565 31261
BEIDOU-3 IGSO-3 (C40)   
1 44709U 19073A   24117.87409900 -.00000178  00000+0  00000+0 0  9991
2 44709  56.1380 289.2635 0037283 179.6696 180.2583  1.00265166 16620
BEIDOU-3 M22 (C44)      
1 44793U 19078A   24116.20866084 -.00000059  00000+0  00000+0 0  9993
2 44793  54.6009 327.2011 0007054  28.1686 331.9037  1.86232204 30069
BEIDOU-3 M21 (C43)      
1 44794U 19078B   24119.02332054 -.00000050  00000+0  00000+0 0  9993
2 44794  54.5727 327.0806 0004875  25.7790 334.2736  1.86232604 30126
BEIDOU-3 M19 (C41)      
1 44864U 19090A   24119.24432314  .00000031  00000+0  00000+0 0  9997
2 44864  55.8900  88.7192 0019646 283.2307  58.0298  1.86231635 29706
BEIDOU-3 M20 (C42)      
1 44865U 19090B   24119.26448602  .00000031  00000+0  00000+0 0  9997
2 44865  55.8917  88.7518 0017584 295.2727 149.2532  1.86231568 29681
BEIDOU-3 G2 (C60)       
1 45344U 20017A   24119.14256924 -.00000129  00000+0  00000+0 0  9991
2 45344   2.2579  27.5827 0001121  10.9209 309.4250  1.00269949 15452
BEIDOU-3 G3 (C61)       
1 45807U 20040A   24118.83521521 -.00000342  00000+0  00000+0 0  9991
2 45807   0.6995  35.0546 0005314 305.4294 287.0808  1.00270385 14248
BEIDOU-3 G4             
1 56564U 23066A   24118.85188410 -.00000100  00000+0  00000+0 0  9994
2 56564   2.2502 288.2226 0004535 188.3641 206.4897  1.00272183  3572
BEIDOU-3 M25            
1 58654U 23207A   24118.56899671  .00000025  00000+0  00000+0 0  9994
2 58654  55.0719  88.7924 0004808 294.6512  65.2713  1.86232215  2303
BEIDOU-3 M26            
1 58655U 23207B   24118.36785535  .00000024  00000+0  00000+0 0  9995
2 58655  55.0737  88.7846 0005347 278.8939  81.0178  1.86231810  2281
